     3.03           N: GNSS NAV DATA    M: Mixed            RINEX VERSION / TYPE
GNSS-SDRLIB v1.1                        20240331 062644 UTC PGM / RUN BY / DATE 
                                                            END OF HEADER       
G05 2022 01 01 00 00 00 -.663348473608D-04 -.136424205266D-11  .000000000000D+00
      .740000000000D+02 -.837187500000D+02  .419517474587D-08  .201849251315D+01
     -.437162816525D-05  .589362892788D-02  .123139470816D-04  .515364541054D+04
      .518400000000D+06 -.540167093277D-07 -.411012408088D-01 -.689178705215D-07
      .959403181279D+00  .143343750000D+03  .101488582113D+01 -.768674875537D-08
      .500735143343D-09  .100000000000D+01  .219000000000D+04  .000000000000D+00
      .200000000000D+01  .000000000000D+00 -.111758708954D-07  .740000000000D+02
      .518436000000D+06  .000000000000D+00
G10 2022 01 01 00 00 00 -.282293185592D-03 -.920863385545D-11  .000000000000D+00
      .600000000000D+02 -.835000000000D+02  .381301597028D-08 -.261960097884D+01
     -.436976552010D-05  .740606582258D-02  .119917094707D-04  .515368219948D+04
      .518400000000D+06  .465661287308D-07 -.413083007708D-02 -.540167093277D-07
      .972251247607D+00  .155656250000D+03 -.254667548104D+01 -.738780773185D-08
      .538951020902D-09  .100000000000D+01  .219000000000D+04  .000000000000D+00
      .200000000000D+01  .000000000000D+00  .232830643654D-08  .600000000000D+02
      .518466000000D+06  .000000000000D+00
G18 2022 01 01 00 00 00  .269385520369D-03 -.693489710102D-11  .000000000000D+00
      .100000000000D+03 -.162000000000D+03  .419017453759D-08 -.429473514073D+00
     -.853836536407D-05  .209608941805D-02  .420212745667D-05  .515363634872D+04
      .518400000000D+06  .111758708954D-06 -.102811723344D+01 -.223517417908D-07
      .970208257640D+00  .305062500000D+03  .309909716115D+01 -.813212444991D-08
     -.400016662300D-09  .100000000000D+01  .219000000000D+04  .000000000000D+00
      .200000000000D+01  .000000000000D+00 -.838190317154D-08  .868000000000D+03
      .518466000000D+06  .000000000000D+00
G20 2022 01 01 00 00 00  .517381820828D-03 -.113686837722D-12  .000000000000D+00
      .620000000000D+02 -.954375000000D+02  .462662128878D-08  .456110320608D+00
     -.490434467793D-05  .536687881686D-02  .121183693409D-04  .515371948051D+04
      .518400000000D+06  .113621354103D-06 -.154225307760D+00  .651925802231D-07
      .941564056859D+00  .137125000000D+03  .308794656256D+01 -.799747598412D-08
      .418588864478D-09  .100000000000D+01  .219000000000D+04  .000000000000D+00
      .200000000000D+01  .000000000000D+00 -.838190317154D-08  .620000000000D+02
      .518496000000D+06  .000000000000D+00
G23 2022 01 01 00 00 00  .158632174134D-04 -.397903932026D-11  .000000000000D+00
      .136000000000D+03 -.836562500000D+02  .394337854326D-08 -.125988666302D+01
     -.429153442383D-05  .195271300618D-02  .117812305689D-04  .515369845200D+04
      .518400000000D+06 -.428408384323D-07 -.287402779251D-01 -.223517417908D-07
      .967294461297D+00  .158218750000D+03  .289501130866D+01 -.752424198631D-08
      .479662837025D-09  .100000000000D+01  .219000000000D+04  .000000000000D+00
      .200000000000D+01  .000000000000D+00 -.838190317154D-08  .136000000000D+03
      .518496000000D+06  .000000000000D+00
G24 2022 01 01 00 00 00  .276674050838D-03  .682121026330D-12  .000000000000D+00
      .690000000000D+02 -.109687500000D+02  .547129933015D-08 -.311958099130D+00
     -.474974513054D-06  .122408259194D-01  .796280801296D-05  .515369119263D+04
      .518400000000D+06  .689178705215D-07  .201732624560D+01  .119209289551D-06
      .934128208109D+00  .214343750000D+03  .796144263679D+00 -.848785355317D-08
     -.611454040944D-09  .100000000000D+01  .219000000000D+04  .000000000000D+00
      .200000000000D+01  .000000000000D+00  .232830643654D-08  .690000000000D+02
      .518496000000D+06  .000000000000D+00
G28 2022 01 01 00 00 00  .431544147432D-03 -.784439180279D-11  .000000000000D+00
      .740000000000D+02  .159781250000D+03  .396016495677D-08  .205698207946D+01
      .817142426968D-05  .170892619062D-01  .920891761780D-05  .515371412659D+04
      .518400000000D+06  .318512320518D-06 -.304977930051D+01 -.186264514923D-08
      .970459752275D+00  .202406250000D+03 -.129633518504D+01 -.748316884688D-08
     -.564309220030D-10  .100000000000D+01  .219000000000D+04  .000000000000D+00
      .200000000000D+01  .630000000000D+02 -.111758708954D-07  .740000000000D+02
      .518496000000D+06  .000000000000D+00
